332P-C/Ikeya-Murakami,e,9.3791,3.7862,152.3018,3.087957,0.1816340,0.48933485,73.6947,09/28.0/2022,2000,g 16.5,4.0
# From MPEC 2016-ED0
332P-D/Ikeya-Murakami,e,9.3761,3.7923,152.4393,3.081138,0.1822373,0.48977814,359.9486,03/17.0/2016,2000,g 19.0,4.0
# From MPEC 2016-ED0
332P-E/Ikeya-Murakami,e,9.3774,3.8228,152.2825,3.079877,0.1823493,0.48922008,359.9889,03/17.0/2016,2000,g 21.0,4.0
# From MPEC 2016-ED0
332P-F/Ikeya-Murakami,e,9.5293,3.4757,152.8203,3.163214,0.1751908,0.49918860,359.8501,03/17.0/2016,2000,g 21.0,4.0
# From MPEC 2016-ED0
332P-G/Ikeya-Murakami,e,9.2523,3.6955,154.4000,3.050519,0.1849880,0.49200362,359.9006,03/19.0/2016,2000,g 19.0,4.0
# From MPC100285
332P-H/Ikeya-Murakami,e,9.3796,3.7860,152.3025,3.088141,0.1816178,0.48937012,73.6231,09/28.0/2022,2000,g 19.0,4.0
# From MPEC 2016-ED0
332P-I/Ikeya-Murakami,e,9.3791,3.8048,152.3297,3.081767,0.1821815,0.48955490,359.9360,03/17.0/2016,2000,g 20.5,2.0
# From MPEC 2016-EI8
332P-J/Ikeya-Murakami,e,9.4296,3.6729,152.7712,3.115165,0.1792596,0.49429435,359.8613,03/17.0/2016,2000,g 20.5,2.0
# From MPEC 2020-L06
333P/LINEAR,e,132.0022,115.6529,25.9843,4.221103,0.1136489,0.73649972,269.8567,09/28.0/2022,2000,g 15.0,4.0
# From MPC115888
334P/NEAT,e,20.4003,90.5995,90.1042,6.836952,0.0551328,0.35058466,107.0595,09/28.0/2022,2000,g 10.5,4.0
# From MPEC 2021-U31
335P/Gibbs,e,7.2932,330.8473,162.3076,3.578213,0.1456146,0.54618634,6.8424,09/28.0/2022,2000,g 17.0,4.0
# From MPC105244
336P/McNaught,e,17.8280,298.2615,308.7149,5.035605,0.0872221,0.44409383,180.2128,09/28.0/2022,2000,g 13.5,4.0
# From MPEC 2022-QD9
337P/WISE,e,15.3710,106.0603,161.0414,3.285794,0.1654793,0.49659595,14.6988,09/28.0/2022,2000,g 17.0,4.0
# From MPEC 2022-K19
338P/McNaught,e,25.3865,9.7999,4.4749,3.894350,0.1282483,0.41206409,273.4596,09/28.0/2022,2000,g 12.0,4.0
# From MPC101101
339P/Gibbs,e,5.7332,172.7229,27.4761,3.699183,0.1385305,0.63553238,313.3174,09/28.0/2022,2000,g 17.0,4.0
# From MPC133426
340P/Boattini,e,2.0781,291.6723,35.9878,4.250252,0.1124817,0.28080272,240.1602,09/28.0/2022,2000,g 14.3,4.0
# From MPEC 2022-K19
341P/Gibbs,e,3.7972,29.9679,312.2505,4.291041,0.1108818,0.41575427,256.0893,09/28.0/2022,2000,g 12.5,4.0
# From MPC101101
342P/SOHO,e,11.6668,27.7111,73.2560,3.041499,0.1858115,0.98277556,0.0000,10/19.2859/2021,2000,g  9.0,4.0
# From MPEC 2022-K19
343P/NEAT-LONEOS,e,5.5897,257.1263,137.4583,5.458188,0.0772914,0.58505331,159.7185,09/28.0/2022,2000,g 14.0,4.0
# From MPC109148
344P/Read,e,3.4941,273.1280,140.4248,4.861808,0.0919406,0.42302383,198.1217,09/28.0/2022,2000,g 13.0,4.0
# From MPEC 2022-K19
345P/LINEAR,e,2.7275,154.5152,196.5478,4.035371,0.1215847,0.22149958,274.6513,09/28.0/2022,2000,g 12.0,4.0
# From MPEC 2022-K19
346P/Catalina,e,22.1995,102.4540,335.9562,4.473655,0.1041623,0.50308991,213.7696,09/28.0/2022,2000,g 14.0,4.0
# From MPEC 2022-K19
347P/PANSTARRS,e,11.7539,261.0209,98.4245,3.604270,0.1440383,0.38609956,317.4990,09/28.0/2022,2000,g 15.0,4.0
# From MPEC 2022-ED3
348P/PANSTARRS,e,17.7387,312.9413,135.6729,3.151338,0.1761820,0.30700323,40.0705,09/28.0/2022,2000,g 14.0,4.0
# From MPEC 2022-K19
349P/Lemmon,e,5.4904,331.7518,255.9253,3.575714,0.1457672,0.29843894,271.4390,09/28.0/2022,2000,g 14.0,4.0
# From MPC111775
350P/McNaught,e,7.3630,65.2957,139.6976,4.085485,0.1193545,0.09306974,208.8727,09/28.0/2022,2000,g 14.0,4.0
# From MPC105244
351P/Wiegert-PANSTARRS,e,12.7802,283.4292,352.6808,4.438904,0.1053878,0.29522235,264.0381,09/28.0/2022,2000,g 12.5,4.0
# From MPC110086
352P/Skiff,e,21.0128,28.0080,309.3296,6.644045,0.0575513,0.61795138,110.6747,09/28.0/2022,2000,g 11.5,4.0
# From MPEC 2020-AA5
353P/McNaught,e,28.4136,121.5355,230.4571,4.170694,0.1157155,0.47038676,201.3098,09/28.0/2022,2000,g 14.5,4.0
# From MPC105545
354P/LINEAR,e,5.2542,320.1306,132.7390,2.290315,0.2843552,0.12535820,251.6647,09/28.0/2022,2000,g 15.5,4.0
# From MPEC 2020-AA5
355P/LINEAR-NEAT,e,11.0461,51.4317,336.2990,3.469911,0.1524848,0.50780407,275.9032,09/28.0/2022,2000,g 15.5,2.0
# From MPEC 2022-F14
356P/WISE,e,9.6380,160.7971,226.0310,4.157286,0.1162758,0.35579828,202.7327,09/28.0/2022,2000,g 14.0,4.0
# From MPC114609
357P/Hill,e,6.3156,44.5582,1.3961,4.458243,0.1047028,0.43563935,165.5957,09/28.0/2022,2000,g 15.5,4.0
# From MPEC 2020-HN5
358P/PANSTARRS,e,11.0604,85.7026,299.7787,3.146575,0.1765822,0.23892565,287.7435,09/28.0/2022,2000,g 18.0,4.0
# From MPC110086
359P/LONEOS,e,10.2665,149.7539,200.2521,4.640037,0.0986102,0.32418433,183.5939,09/28.0/2022,2000,g 13.5,4.0
# From MPC108599
360P/WISE,e,24.1120,2.1922,354.1859,3.700341,0.1384654,0.49928736,258.0138,09/28.0/2022,2000,g 19.5,6.0
# From MPC114609
361P/Spacewatch,e,13.9020,203.2566,219.0016,4.935836,0.0898800,0.43888308,139.1052,09/28.0/2022,2000,g 12.0,4.0
# From MPEC 2017-V13
362P/,e,15.5568,192.5460,53.6284,3.971376,0.1245353,0.27881003,277.6007,09/28.0/2022,2000,g 12.9,2.0
# From MPC114609
363P/Lemmon,e,5.4070,146.8830,340.9933,3.565722,0.1463804,0.52032472,246.2487,09/28.0/2022,2000,g 17.5,4.0
# From MPEC 2022-K19
364P/PANSTARRS,e,12.1349,46.1585,212.0144,2.880092,0.2016483,0.72182664,314.0214,09/28.0/2022,2000,g 17.0,2.0
# From MPC111775
365P/PANSTARRS,e,9.8357,86.3781,67.5832,3.160875,0.1753853,0.58137350,294.0065,09/28.0/2022,2000,g 17.0,4.0
# From MPC114610
366P/Spacewatch,e,8.8571,70.7630,153.0590,3.496749,0.1507326,0.34802519,230.9031,09/28.0/2022,2000,g 15.0,4.0
# From MPC112395
367P/Catalina,e,8.4598,58.7198,172.8207,3.507397,0.1500468,0.27977643,234.3728,09/28.0/2022,2000,g 17.5,2.0
# From MPC114610
368P/NEAT,e,15.4815,257.8662,118.8919,5.529023,0.0758109,0.62674257,111.7081,09/28.0/2022,2000,g 14.0,4.0
# From MPC114610
369P/Hill,e,10.3226,47.2907,13.1538,4.381963,0.1074487,0.55523595,155.0342,09/28.0/2022,2000,g 15.0,4.0
# From MPEC 2021-F20
370P/NEAT,e,19.4214,55.0763,356.6960,6.434386,0.0603870,0.61523748,94.8308,09/28.0/2022,2000,g 13.0,4.0
# From MPC114610
371P/LINEAR-Skiff,e,17.3834,67.2520,308.5385,4.180668,0.1153017,0.47707470,167.5296,09/28.0/2022,2000,g 16.0,4.0
# From MPEC 2020-K19
372P/McNaught,e,9.5078,325.8179,27.5780,4.507405,0.1029945,0.15259388,147.7956,09/28.0/2022,2000,g 13.5,4.0
# From MPEC 2021-F20
373P/Rinner,e,13.7686,231.9588,221.0142,3.801298,0.1329861,0.39273349,168.6377,09/28.0/2022,2000,g 14.5,4.0
# From MPC114610
374P/Larson,e,10.7669,7.9151,51.4465,4.971740,0.0889081,0.46323206,120.5080,09/28.0/2022,2000,g 14.0,4.0
# From MPEC 2021-F20
375P/Hill,e,17.3615,359.9502,119.3773,5.550949,0.0753621,0.65881532,103.7854,09/28.0/2022,2000,g 16.0,4.0
# From MPEC 2022-K19
376P/LONEOS,e,1.1751,313.9265,284.7400,5.776810,0.0709859,0.51636357,78.1571,09/28.0/2022,2000,g 12.5,4.0
# From MPEC 2022-N37
377P/Scotti,e,9.0242,226.0667,355.0394,6.705117,0.0567668,0.25155306,45.8820,09/28.0/2022,2000,g  9.5,4.0
# From MPEC 2022-ST7
378P/McNaught,e,19.0533,94.1319,193.6683,6.335341,0.0618086,0.46786130,43.9575,09/28.0/2022,2000,g 12.0,4.0
# From MPC115889
379P/Spacewatch,e,12.4522,183.8387,30.5775,3.509769,0.1498947,0.34329452,172.7485,09/28.0/2022,2000,g 15.0,4.0
# From MPEC 2022-K19
380P/PANSTARRS,e,8.1588,131.9836,86.3816,4.430583,0.1056849,0.34134951,128.9856,09/28.0/2022,2000,g 14.6,4.0
# From MPEC 2021-J28
381P/LINEAR-Spacewatch,e,28.3788,173.7582,173.2708,7.134591,0.0517190,0.68186815,56.7257,09/28.0/2022,2000,g 17.5,2.0
# From MPEC 2022-ST7
382P/Larson,e,8.4578,173.7385,167.4032,6.281096,0.0626110,0.29873676,15.8308,09/28.0/2022,2000,g  8.0,4.0
# From MPEC 2022-OB6
383P/Christensen,e,12.3252,207.8266,133.7663,3.546692,0.1475600,0.59947502,157.5133,09/28.0/2022,2000,g 18.0,4.0
# From MPEC 2022-OB6
384P/Kowalski,e,7.2843,354.2285,37.6299,2.900139,0.1995611,0.61610768,215.8919,09/28.0/2022,2000,g 19.5,4.0
# From MPEC 2021-F20
385P/Hill,e,16.8322,357.0605,44.3343,4.288455,0.1109821,0.40196201,123.0251,09/28.0/2022,2000,g 13.0,4.0
# From MPEC 2021-L04
386P/PANSTARRS,e,15.2307,134.9389,353.1311,4.053426,0.1207732,0.41631117,92.9901,09/28.0/2022,2000,g 14.5,4.0
# From MPEC 2021-J28
387P/Boattini,e,8.9279,259.2635,162.7899,4.797079,0.0938078,0.73664182,104.8066,09/28.0/2022,2000,g 15.0,4.0
# From MPEC 2021-S45
388P/Gibbs,e,23.8855,37.0454,42.3019,5.241450,0.0821348,0.61854450,95.4389,09/28.0/2022,2000,g 13.0,4.0
# From MPEC 2022-OB6
389P/Siding Spring,e,160.0826,218.8737,249.3846,5.632599,0.0737294,0.70436875,73.9926,09/28.0/2022,2000,g 16.0,4.0
# From MPEC 2022-OB6
390P/Gibbs,e,18.5596,152.2729,232.3811,5.808872,0.0703990,0.70741643,64.7246,09/28.0/2022,2000,g 12.0,4.0
# From MPEC 2021-F20
391P/Kowalski,e,21.2697,124.7382,187.2960,4.683265,0.0972481,0.11996420,160.5025,09/28.0/2022,2000,g  8.0,4.0
# From MPEC 2021-J28
392P/LINEAR,e,4.9320,24.8865,71.8859,6.141165,0.0647631,0.68306468,58.9373,09/28.0/2022,2000,g 14.5,4.0
# From MPEC 2021-BE3
393P/Spacewatch-Hill,e,16.7876,36.3965,328.7175,4.791466,0.0939727,0.12064635,100.0478,09/28.0/2022,2000,g 11.0,4.0
# From MPEC 2020-KB7
394P/PANSTARRS,e,8.5294,98.1255,54.4764,4.330628,0.1093648,0.36743753,113.0087,09/28.0/2022,2000,g 16.0,2.4
# From MPEC 2022-ST7
395P/Catalina-NEAT,e,3.2888,223.1473,90.5594,6.635556,0.0576618,0.38731687,15.5561,09/28.0/2022,2000,g 10.0,4.0
# From MPEC 2020-KB7
396P/,e,5.4366,136.6562,8.4417,6.808054,0.0554842,0.41571463,62.5532,09/28.0/2022,2000,g 12.0,4.0
# From MPEC 2022-OB6
397P/Lemmon,e,10.9298,8.1947,14.5069,3.829591,0.1315151,0.40529207,109.1922,09/28.0/2022,2000,g 12.0,4.0
# From MPEC 2021-L04
398P/Boattini,e,11.0160,127.4475,320.2027,3.126892,0.1782521,0.58292259,114.1098,09/28.0/2022,2000,g 15.5,4.0
# From MPEC 2022-M88
399P/PANSTARRS,e,13.3206,207.1328,214.3389,3.791609,0.1334962,0.44720566,65.8503,09/28.0/2022,2000,g 14.0,4.0
# From MPEC 2022-ED3
400P/PANSTARRS,e,10.9303,176.3915,238.8183,3.561387,0.1466477,0.40948858,87.2133,09/28.0/2022,2000,g 15.5,2.8
# From MPEC 2022-K19
401P/McNaught,e,12.8026,359.8781,309.4185,5.776295,0.0709954,0.57968339,72.8490,09/28.0/2022,2000,g 12.5,4.0
# From MPEC 2022-P82
402P/LINEAR,e,30.8467,123.0929,326.7414,7.022521,0.0529620,0.43924271,15.2188,09/28.0/2022,2000,g  8.0,4.0
